NORAD_CAT_ID,OBJECT_NAME,OBJECT_TYPE,EPOCH,MEAN_MOTION,ECCENTRICITY,INCLINATION,RA_OF_ASC_NODE,ARG_OF_PERICENTER,MEAN_ANOMALY,BSTAR,MEAN_MOTION_DOT,MEAN_MOTION_DDOT,TLE_LINE0,TLE_LINE1,TLE_LINE2,SEMIMAJOR_AXIS,PERIOD,APOGEE,PERIGEE,DECAYED
55743.0,STARLINK-5602,PAYLOAD,2024-06-14 20:32:38,14.98326386,0.0002951,70.0,40.2238,267.6633,92.4188,0.00010349,1.142e-05,0.0,0 STARLINK-5602,1 55743U 23028C   24166.85599889  .00001142  00000-0  10349-3 0  9997,2 55743  70.0000  40.2238 0002951 267.6633  92.4188 14.98326386 71248,6950.204,96.107,574.12,570.018,0.0
55743.0,STARLINK-5602,PAYLOAD,2024-06-15 09:21:42,14.98332207,0.0002987,70.0,38.8765,270.8693,89.2123,3.5131e-05,3.26e-06,0.0,0 STARLINK-5602,1 55743U 23028C   24167.39007686  .00000326  00000-0  35131-4 0  9996,2 55743  70.0000  38.8765 0002987 270.8693  89.2123 14.98332207 71328,6950.186,96.107,574.127,569.975,0.0
55743.0,STARLINK-5602,PAYLOAD,2024-06-15 22:10:46,14.98334261,0.0002981,69.9999,37.53,266.9453,93.1365,3.7207e-05,3.51e-06,0.0,0 STARLINK-5602,1 55743U 23028C   24167.92415491  .00000351  00000-0  37207-4 0  9996,2 55743  69.9999  37.5300 0002981 266.9453  93.1365 14.98334261 71400,6950.18,96.107,574.117,569.973,0.0
55743.0,STARLINK-5602,PAYLOAD,2024-06-16 01:23:02,14.98336474,0.0002974,69.9999,37.1934,267.1361,92.9458,5.9931e-05,6.22e-06,0.0,0 STARLINK-5602,1 55743U 23028C   24168.05767249  .00000622  00000-0  59931-4 0  9991,2 55743  69.9999  37.1934 0002974 267.1361  92.9458 14.98336474 71422,6950.173,96.107,574.105,569.971,0.0
55743.0,STARLINK-5602,PAYLOAD,2024-06-16 22:12:48,14.98330214,0.0002859,70.0004,35.0058,271.0403,89.0428,3.6627e-05,3.44e-06,0.0,0 STARLINK-5602,1 55743U 23028C   24168.92555677  .00000344  00000-0  36627-4 0  9995,2 55743  70.0004  35.0058 0002859 271.0403  89.0428 14.98330214 71553,6950.192,96.107,574.044,570.07,0.0
55743.0,STARLINK-5602,PAYLOAD,2024-06-17 20:38:41,14.98327458,0.0002825,70.0005,32.6493,271.1111,88.9724,-3.0849e-05,-4.61e-06,0.0,0 STARLINK-5602,1 55743U 23028C   24169.86020011 -.00000461  00000-0 -30849-4 0  9990,2 55743  70.0005  32.6493 0002825 271.1111  88.9724 14.98327458 71698,6950.201,96.107,574.029,570.102,0.0
55743.0,STARLINK-5602,PAYLOAD,2024-06-17 22:14:49,14.98328842,0.0002683,70.0008,32.4818,264.5081,95.5772,7.2498e-06,-6e-08,0.0,0 STARLINK-5602,1 55743U 23028C   24169.92695819 -.00000006  00000-0  72498-5 0  9992,2 55743  70.0008  32.4818 0002683 264.5081  95.5772 14.98328842 71701,6950.196,96.107,573.926,570.197,0.0
55743.0,STARLINK-5602,PAYLOAD,2024-06-18 07:51:37,14.98330773,0.0002663,70.0009,31.4714,269.1949,90.8905,1.5664e-05,9.4e-07,0.0,0 STARLINK-5602,1 55743U 23028C   24170.32751720  .00000094  00000-0  15664-4 0  9999,2 55743  70.0009  31.4714 0002663 269.1949  90.8905 14.98330773 71766,6950.191,96.107,573.906,570.205,0.0
55743.0,STARLINK-5602,PAYLOAD,2024-06-18 20:40:41,14.9833398,0.0002888,70.0003,30.1247,268.0918,91.991,7.4134e-05,7.92e-06,0.0,0 STARLINK-5602,1 55743U 23028C   24170.86159218  .00000792  00000-0  74134-4 0  9994,2 55743  70.0003  30.1247 0002888 268.0918  91.9910 14.98333980 71840,6950.181,96.107,574.053,570.038,0.0
55743.0,STARLINK-5602,PAYLOAD,2024-06-18 23:52:57,14.9833437,0.000288,70.0002,29.788,268.1384,91.9445,7.6967e-05,8.26e-06,0.0,0 STARLINK-5602,1 55743U 23028C   24170.99511161  .00000826  00000-0  76967-4 0  9991,2 55743  70.0002  29.7880 0002880 268.1384  91.9445 14.98334370 71865,6950.179,96.107,574.046,570.043,0.0
55743.0,STARLINK-5602,PAYLOAD,2024-06-19 20:42:42,14.9832964,0.0002924,70.0,27.5995,268.611,91.4714,1.6972e-05,1.1e-06,0.0,0 STARLINK-5602,1 55743U 23028C   24171.86299557  .00000110  00000-0  16972-4 0  9996,2 55743  70.0000  27.5995 0002924 268.6110  91.4714 14.98329640 71999,6950.194,96.107,574.091,570.027,0.0
55743.0,STARLINK-5602,PAYLOAD,2024-06-19 22:18:50,14.98329293,0.0002935,70.0,27.4311,268.7771,91.3052,1.1692e-05,4.7e-07,0.0,0 STARLINK-5602,1 55743U 23028C   24171.92975592  .00000047  00000-0  11692-4 0  9996,2 55743  70.0000  27.4311 0002935 268.7771  91.3052 14.98329293 72007,6950.195,96.107,574.1,570.02,0.0
55743.0,STARLINK-5602,PAYLOAD,2024-06-20 14:20:11,14.98330851,0.0002932,69.9998,25.7477,269.1726,90.9097,-4.1016e-06,-1.42e-06,0.0,0 STARLINK-5602,1 55743U 23028C   24172.59735504 -.00000142  00000-0 -41016-5 0  9999,2 55743  69.9998  25.7477 0002932 269.1726  90.9097 14.98330851 72103,6950.19,96.107,574.093,570.017,0.0
55743.0,STARLINK-5602,PAYLOAD,2024-06-20 22:20:51,14.98331317,0.0002815,70.0,24.9049,265.9277,94.1561,0.00012368,1.383e-05,0.0,0 STARLINK-5602,1 55743U 23028C   24172.93115042  .00001383  00000-0  12368-3 0  9998,2 55743  70.0000  24.9049 0002815 265.9277  94.1561 14.98331317 72156,6950.189,96.107,574.01,570.097,0.0
55743.0,STARLINK-5602,PAYLOAD,2024-06-21 14:22:11,14.98332104,0.0002969,70.0007,23.2256,250.1054,109.9785,3.3704e-05,3.09e-06,0.0,0 STARLINK-5602,1 55743U 23028C   24173.59874950  .00000309  00000-0  33704-4 0  9996,2 55743  70.0007  23.2256 0002969 250.1054 109.9785 14.98332104 72253,6950.186,96.107,574.115,569.988,0.0
55743.0,STARLINK-5602,PAYLOAD,2024-06-21 22:22:52,14.98327828,0.0002938,70.0005,22.3834,259.3816,100.7012,1.9999e-05,1.46e-06,0.0,0 STARLINK-5602,1 55743U 23028C   24173.93255294  .00000146  00000-0  19999-4 0  9997,2 55743  70.0005  22.3834 0002938 259.3816 100.7012 14.98327828 72301,6950.2,96.107,574.107,570.023,0.0
55743.0,STARLINK-5602,PAYLOAD,2024-06-21 23:59:00,14.98330012,0.0002856,70.0004,22.2157,254.4207,105.6637,-3.9023e-05,-5.59e-06,0.0,0 STARLINK-5602,1 55743U 23028C   24173.99931289 -.00000559  00000-0 -39023-4 0  9998,2 55743  70.0004  22.2157 0002856 254.4207 105.6637 14.98330012 72313,6950.193,96.107,574.043,570.073,0.0
55743.0,STARLINK-5602,PAYLOAD,2024-06-22 14:24:13,14.98303173,0.0003031,70.0002,20.7007,263.253,96.8284,0.00049278,5.788e-05,0.0,0 STARLINK-5602,1 55743U 23028C   24174.60015693  .00005788  00000-0  49278-3 0  9998,2 55743  70.0002  20.7007 0003031 263.2530  96.8284 14.98303173 72408,6950.276,96.109,574.247,570.034,0.0
55743.0,STARLINK-5602,PAYLOAD,2024-06-22 22:24:53,14.98333575,0.0002965,70.0004,19.8589,261.1631,98.9193,-6.7229e-06,-1.73e-06,0.0,0 STARLINK-5602,1 55743U 23028C   24174.93395002 -.00000173  00000-0 -67229-5 0  9992,2 55743  70.0004  19.8589 0002965 261.1631  98.9193 14.98333575 72454,6950.182,96.107,574.108,569.986,0.0
55743.0,STARLINK-5602,PAYLOAD,2024-06-23 12:50:05,14.98327978,0.0003013,70.0002,18.3421,266.6602,93.4212,4.2598e-05,4.15e-06,0.0,0 STARLINK-5602,1 55743U 23028C   24175.53479146  .00000415  00000-0  42598-4 0  9999,2 55743  70.0002  18.3421 0003013 266.6602  93.4212 14.98327978 72546,6950.199,96.107,574.158,569.97,0.0
55743.0,STARLINK-5602,PAYLOAD,2024-06-23 14:26:14,14.98327597,0.0003009,70.0002,18.1734,266.5499,93.5316,3.9133e-05,3.74e-06,0.0,0 STARLINK-5602,1 55743U 23028C   24175.60155187  .00000374  00000-0  39133-4 0  9998,2 55743  70.0002  18.1734 0003009 266.5499  93.5316 14.98327597 72553,6950.2,96.107,574.157,569.974,0.0
55743.0,STARLINK-5602,PAYLOAD,2024-06-23 22:26:54,14.98329922,0.0002976,70.0003,17.3318,265.6828,94.3991,6.2419e-05,6.52e-06,0.0,0 STARLINK-5602,1 55743U 23028C   24175.93535005  .00000652  00000-0  62419-4 0  9997,2 55743  70.0003  17.3318 0002976 265.6828  94.3991 14.98329922 72609,6950.193,96.107,574.127,569.99,0.0
55743.0,STARLINK-5602,PAYLOAD,2024-06-24 14:28:14,14.98331322,0.0002889,70.0004,15.6483,264.2694,95.8135,4.1831e-05,4.06e-06,0.0,0 STARLINK-5602,1 55743U 23028C   24176.60294953  .00000406  00000-0  41831-4 0  9998,2 55743  70.0004  15.6483 0002889 264.2694  95.8135 14.98331322 72707,6950.189,96.107,574.062,570.046,0.0
55743.0,STARLINK-5602,PAYLOAD,2024-06-24 20:52:47,14.98330942,0.000291,70.0004,14.975,263.9845,96.0982,3.3285e-05,3.04e-06,0.0,0 STARLINK-5602,1 55743U 23028C   24176.86998977  .00000304  00000-0  33285-4 0  9994,2 55743  70.0004  14.9750 0002910 263.9845  96.0982 14.98330942 72749,6950.19,96.107,574.077,570.032,0.0
55743.0,STARLINK-5602,PAYLOAD,2024-06-24 22:28:55,14.98331582,0.0002903,70.0004,14.8067,263.9169,96.1659,3.996e-05,3.84e-06,0.0,0 STARLINK-5602,1 55743U 23028C   24176.93674912  .00000384  00000-0  39960-4 0  9996,2 55743  70.0004  14.8067 0002903 263.9169  96.1659 14.98331582 72754,6950.188,96.107,574.071,570.035,0.0
55743.0,STARLINK-5602,PAYLOAD,2024-06-25 14:30:15,14.98330398,0.0002889,70.0004,13.1233,262.8638,97.2193,2.5492e-05,2.11e-06,0.0,0 STARLINK-5602,1 55743U 23028C   24177.60434984  .00000211  00000-0  25492-4 0  9998,2 55743  70.0004  13.1233 0002889 262.8638  97.2193 14.98330398 72853,6950.192,96.107,574.065,570.049,0.0
55743.0,STARLINK-5602,PAYLOAD,2024-06-25 20:54:48,14.98330494,0.0002887,70.0005,12.4501,262.9511,97.132,2.4999e-05,2.05e-06,0.0,0 STARLINK-5602,1 55743U 23028C   24177.87138966  .00000205  00000-0  24999-4 0  9992,2 55743  70.0005  12.4501 0002887 262.9511  97.1320 14.98330494 72895,6950.191,96.107,574.063,570.05,0.0
55743.0,STARLINK-5602,PAYLOAD,2024-06-25 22:30:56,14.98330808,0.0002901,70.0004,12.2817,263.9196,96.1633,2.6422e-05,2.22e-06,0.0,0 STARLINK-5602,1 55743U 23028C   24177.93814943  .00000222  00000-0  26422-4 0  9997,2 55743  70.0004  12.2817 0002901 263.9196  96.1633 14.98330808 72906,6950.19,96.107,574.072,570.039,0.0
55743.0,STARLINK-5602,PAYLOAD,2024-06-26 22:32:57,14.98330436,0.0002885,70.0005,9.7572,263.5926,96.4905,1.4314e-05,7.8e-07,0.0,0 STARLINK-5602,1 55743U 23028C   24178.93954964  .00000078  00000-0  14314-4 0  9992,2 55743  70.0005   9.7572 0002885 263.5926  96.4905 14.98330436 73053,6950.192,96.107,574.062,570.051,0.0
55743.0,STARLINK-5602,PAYLOAD,2024-06-27 22:34:58,14.98330343,0.0003069,70.0001,7.2315,271.1353,88.9454,1.3309e-05,6.6e-07,0.0,0 STARLINK-5602,1 55743U 23028C   24179.94095109  .00000066  00000-0  13309-4 0  9991,2 55743  70.0001   7.2315 0003069 271.1353  88.9454 14.98330343 73200,6950.192,96.107,574.19,569.924,0.0
